NORAD_CAT_ID,OBJECT_NAME,OBJECT_TYPE,EPOCH,MEAN_MOTION,ECCENTRICITY,INCLINATION,RA_OF_ASC_NODE,ARG_OF_PERICENTER,MEAN_ANOMALY,BSTAR,MEAN_MOTION_DOT,MEAN_MOTION_DDOT,TLE_LINE0,TLE_LINE1,TLE_LINE2,SEMIMAJOR_AXIS,PERIOD,APOGEE,PERIGEE,DECAYED
52338.0,STARLINK-3815,PAYLOAD,2022-12-15 16:31:09,15.08836792,0.0001992,53.2173,106.3688,36.3784,323.7343,3.5832e-05,2.82e-06,0.0,0 STARLINK-3815,1 52338U 22045H   22349.68830916  .00000282  00000-0  35832-4 0  9992,2 52338  53.2173 106.3688 0001992  36.3784 323.7343 15.08836792 37507,6917.89,95.438,541.133,538.377,0.0
52338.0,STARLINK-3815,PAYLOAD,2022-12-16 08:25:00,15.0884892,0.0001999,53.2176,103.3947,34.1989,325.9131,0.0001209,1.637e-05,0.0,0 STARLINK-3815,1 52338U 22045H   22350.35069801  .00001637  00000-0  12090-3 0  9990,2 52338  53.2176 103.3947 0001999  34.1989 325.9131 15.08848920 37601,6917.853,95.437,541.101,538.335,0.0
52338.0,STARLINK-3815,PAYLOAD,2022-12-16 13:11:10,15.08843552,0.0002031,53.2171,102.5012,30.5615,329.5495,8.829399999999999e-05,1.117e-05,0.0,0 STARLINK-3815,1 52338U 22045H   22350.54942152  .00001117  00000-0  88294-4 0  9993,2 52338  53.2171 102.5012 0002031  30.5615 329.5495 15.08843552 37636,6917.87,95.437,541.14,538.33,0.0
52338.0,STARLINK-3815,PAYLOAD,2022-12-16 17:57:19,15.08837359,0.0002015,53.2176,101.6111,33.5852,326.5267,5.1523e-05,5.32e-06,0.0,0 STARLINK-3815,1 52338U 22045H   22350.74814638  .00000532  00000-0  51523-4 0  9997,2 52338  53.2176 101.6111 0002015  33.5852 326.5267 15.08837359 37664,6917.888000000001,95.438,541.1469999999998,538.36,0.0
52338.0,STARLINK-3815,PAYLOAD,2022-12-17 00:18:52,15.08831515,0.0002092,53.2176,100.4215,33.5554,326.557,-2.5682e-06,-3.29e-06,0.0,0 STARLINK-3815,1 52338U 22045H   22351.01311225 -.00000329  00000-0 -25682-5 0  9996,2 52338  53.2176 100.4215 0002092  33.5554 326.5570 15.08831515 37700,6917.906,95.438,541.219,538.3240000000002,0.0
52338.0,STARLINK-3815,PAYLOAD,2022-12-17 08:15:49,15.08824438,0.0002071,53.2181,98.935,33.4876,326.6247,-6.7471e-05,-1.361e-05,0.0,0 STARLINK-3815,1 52338U 22045H   22351.34432096 -.00001361  00000-0 -67471-4 0  9990,2 52338  53.2181  98.9350 0002071  33.4876 326.6247 15.08824438 37753,6917.928000000001,95.439,541.226,538.36,0.0
52338.0,STARLINK-3815,PAYLOAD,2022-12-17 11:26:35,15.0882566,0.0002073,53.2182,98.3404,33.953,326.1594,-5.7716e-05,-1.206e-05,0.0,0 STARLINK-3815,1 52338U 22045H   22351.47680089 -.00001206  00000-0 -57716-4 0  9990,2 52338  53.2182  98.3404 0002073  33.9530 326.1594 15.08825660 37772,6917.924,95.438,541.2230000000002,538.355,0.0
52338.0,STARLINK-3815,PAYLOAD,2022-12-17 14:37:21,15.08828993,0.0002144,53.2184,97.746,35.1215,324.9919,-3.4761e-05,-8.41e-06,0.0,0 STARLINK-3815,1 52338U 22045H   22351.60927891 -.00000841  00000-0 -34761-4 0  9999,2 52338  53.2184  97.7460 0002144  35.1215 324.9919 15.08828993 37793,6917.9140000000025,95.438,541.262,538.2959999999998,0.0
52338.0,STARLINK-3815,PAYLOAD,2022-12-18 00:09:39,15.0883648,0.0002317,53.2189,95.9622,35.9111,324.2037,1.753e-05,-9e-08,0.0,0 STARLINK-3815,1 52338U 22045H   22352.00671264 -.00000009  00000-0  17530-4 0  9994,2 52338  53.2189  95.9622 0002317  35.9111 324.2037 15.08836480 37854,6917.891,95.438,541.359,538.153,0.0
52338.0,STARLINK-3815,PAYLOAD,2022-12-18 19:14:18,15.08835128,0.0002302,53.2183,92.3936,36.3573,323.7575,-9.8936e-05,-1.862e-05,0.0,0 STARLINK-3815,1 52338U 22045H   22352.80160080 -.00001862  00000-0 -98936-4 0  9999,2 52338  53.2183  92.3936 0002302  36.3573 323.7575 15.08835128 37970,6917.895,95.438,541.3530000000002,538.168,0.0
52338.0,STARLINK-3815,PAYLOAD,2022-12-19 00:00:27,15.08831181,0.0002355,53.2185,91.502,35.223,324.8917,2.7091e-05,1.43e-06,0.0,0 STARLINK-3815,1 52338U 22045H   22353.00032107  .00000143  00000-0  27091-4 0  9993,2 52338  53.2185  91.5020 0002355  35.2230 324.8917 15.08831181 38005,6917.906999999997,95.438,541.4019999999998,538.143,0.0
52338.0,STARLINK-3815,PAYLOAD,2022-12-19 06:21:59,15.08838818,0.0001921,53.2182,90.3117,28.5969,331.5129,7.632300000000001e-05,9.27e-06,0.0,0 STARLINK-3815,1 52338U 22045H   22353.26527405  .00000927  00000-0  76323-4 0  9993,2 52338  53.2182  90.3117 0001921  28.5969 331.5129 15.08838818 38046,6917.884,95.438,541.078,538.42,0.0
52338.0,STARLINK-3815,PAYLOAD,2022-12-19 19:05:04,15.08839602,0.0002478,53.2185,87.9332,29.3576,330.7555,0.00030346,4.545e-05,0.0,0 STARLINK-3815,1 52338U 22045H   22353.79518955  .00004545  00000-0  30346-3 0  9995,2 52338  53.2185  87.9332 0002478  29.3576 330.7555 15.08839602 38126,6917.882,95.438,541.461,538.0319999999998,0.0
52338.0,STARLINK-3815,PAYLOAD,2022-12-19 23:51:13,15.08856196,0.0002435,53.2189,87.0412,34.6042,325.5109,0.00019492,2.817e-05,0.0,0 STARLINK-3815,1 52338U 22045H   22353.99390051  .00002817  00000-0  19492-3 0  9991,2 52338  53.2189  87.0412 0002435  34.6042 325.5109 15.08856196 38157,6917.831,95.437,541.38,538.011,0.0
52338.0,STARLINK-3815,PAYLOAD,2022-12-20 12:34:17,15.08863798,0.0002453,53.2185,84.6633,32.1538,327.9603,0.0002518,3.724e-05,0.0,0 STARLINK-3815,1 52338U 22045H   22354.52380870  .00003724  00000-0  25180-3 0  9998,2 52338  53.2185  84.6633 0002453  32.1538 327.9603 15.08863798 38234,6917.808000000001,95.436,541.37,537.976,0.0
52338.0,STARLINK-3815,PAYLOAD,2022-12-21 10:49:42,15.08841988,0.0002113,53.2185,80.4996,34.0004,326.1124,-4.2873e-05,-9.71e-06,0.0,0 STARLINK-3815,1 52338U 22045H   22355.45118542 -.00000971  00000-0 -42873-4 0  9998,2 52338  53.2185  80.4996 0002113  34.0004 326.1124 15.08841988 38373,6917.874,95.437,541.201,538.278,0.0
52338.0,STARLINK-3815,PAYLOAD,2022-12-21 17:11:15,15.0883918,0.0002322,53.2185,79.3098,29.8883,330.2241,-9.1485e-05,-1.744e-05,0.0,0 STARLINK-3815,1 52338U 22045H   22355.71614866 -.00001744  00000-0 -91485-4 0  9999,2 52338  53.2185  79.3098 0002322  29.8883 330.2241 15.08839180 38414,6917.8830000000025,95.438,541.354,538.1419999999998,0.0
52338.0,STARLINK-3815,PAYLOAD,2022-12-22 12:15:53,15.08834078,0.0002511,53.2183,75.7424,28.0185,332.0942,-0.00020203,-3.502e-05,0.0,0 STARLINK-3815,1 52338U 22045H   22356.51103533 -.00003502  00000-0 -20203-3 0  9995,2 52338  53.2183  75.7424 0002511  28.0185 332.0942 15.08834078 38533,6917.898,95.438,541.501,538.026,0.0
52338.0,STARLINK-3815,PAYLOAD,2022-12-22 17:02:02,15.0884266,0.0002509,53.2188,74.8488,27.6381,332.4744,-0.00027585,-4.676e-05,0.0,0 STARLINK-3815,1 52338U 22045H   22356.70975183 -.00004676  00000-0 -27585-3 0  9997,2 52338  53.2188  74.8488 0002509  27.6381 332.4744 15.08842660 38561,6917.871999999999,95.437,541.4730000000002,538.002,0.0
52338.0,STARLINK-3815,PAYLOAD,2022-12-23 08:55:53,15.08833583,0.0002636,53.2183,71.8766,24.3241,335.7875,0.00013114,1.799e-05,0.0,0 STARLINK-3815,1 52338U 22045H   22357.37214836  .00001799  00000-0  13114-3 0  9996,2 52338  53.2183  71.8766 0002636  24.3241 335.7875 15.08833583 38668,6917.9,95.438,541.589,537.941,0.0
52338.0,STARLINK-3815,PAYLOAD,2022-12-23 16:52:49,15.08829927,0.0002588,53.2193,70.3888,24.238000000000003,335.8734,0.00010625,1.403e-05,0.0,0 STARLINK-3815,1 52338U 22045H   22357.70335371  .00001403  00000-0  10625-3 0  9997,2 52338  53.2193  70.3888 0002588  24.2380 335.8734 15.08829927 38715,6917.911,95.438,541.567,537.986,0.0
52338.0,STARLINK-3815,PAYLOAD,2022-12-24 11:57:27,15.0882016,0.0002869,53.2202,66.8204,22.5819,337.5299,0.0003102,4.649e-05,0.0,0 STARLINK-3815,1 52338U 22045H   22358.49823866  .00004649  00000-0  31020-3 0  9992,2 52338  53.2202  66.8204 0002869  22.5819 337.5299 15.08820160 38836,6917.941,95.439,541.7909999999998,537.821,0.0
52338.0,STARLINK-3815,PAYLOAD,2022-12-24 15:08:14,15.08829723,0.0002612,53.2188,66.2263,25.7734,334.3388,0.00012358,1.678e-05,0.0,0 STARLINK-3815,1 52338U 22045H   22358.63071901  .00001678  00000-0  12358-3 0  9995,2 52338  53.2188  66.2263 0002612  25.7734 334.3388 15.08829723 38855,6917.9119999999975,95.438,541.5840000000002,537.97,0.0
52338.0,STARLINK-3815,PAYLOAD,2022-12-24 21:29:46,15.08829752,0.0002552,53.2185,65.0368,27.3088,332.8038,8.1916e-05,1.015e-05,0.0,0 STARLINK-3815,1 52338U 22045H   22358.89568190  .00001015  00000-0  81916-4 0  9996,2 52338  53.2185  65.0368 0002552  27.3088 332.8038 15.08829752 38899,6917.9119999999975,95.438,541.5419999999998,538.011,0.0
52338.0,STARLINK-3815,PAYLOAD,2022-12-25 07:02:05,15.08830057,0.0002475,53.2191,63.2543,31.0015,329.1122,4.9589e-05,5.01e-06,0.0,0 STARLINK-3815,1 52338U 22045H   22359.29312343  .00000501  00000-0  49589-4 0  9997,2 52338  53.2191  63.2543 0002475  31.0015 329.1122 15.08830057 38957,6917.911,95.438,541.488,538.064,0.0
52338.0,STARLINK-3815,PAYLOAD,2022-12-25 13:23:39,15.08818505,0.0002686,53.2178,62.0637,29.5843,330.53,-5.9185e-05,-1.23e-05,0.0,0 STARLINK-3815,1 52338U 22045H   22359.55809685 -.00001230  00000-0 -59185-4 0  9991,2 52338  53.2178  62.0637 0002686  29.5843 330.5300 15.08818505 38990,6917.946,95.439,541.669,537.953,0.0
52338.0,STARLINK-3815,PAYLOAD,2022-12-26 06:52:53,15.08830334,0.0002549,53.2172,58.7929,28.111,332.0019,3.8779e-05,3.29e-06,0.0,0 STARLINK-3815,1 52338U 22045H   22360.28673183  .00000329  00000-0  38779-4 0  9997,2 52338  53.2172  58.7929 0002549  28.1110 332.0019 15.08830334 39102,6917.91,95.438,541.538,538.012,0.0
52338.0,STARLINK-3815,PAYLOAD,2022-12-26 13:14:26,15.08833308,0.0002668,53.2175,57.6037,29.2159,330.8982,6.3922e-05,7.29e-06,0.0,0 STARLINK-3815,1 52338U 22045H   22360.55169098  .00000729  00000-0  63922-4 0  9994,2 52338  53.2175  57.6037 0002668  29.2159 330.8982 15.08833308 39143,6917.901,95.438,541.612,537.92,0.0
52338.0,STARLINK-3815,PAYLOAD,2022-12-26 21:11:21,15.08832495,0.0002721,53.2177,56.1166,32.0094,328.1063,0.00012035,1.627e-05,0.0,0 STARLINK-3815,1 52338U 22045H   22360.88289220  .00001627  00000-0  12035-3 0  9996,2 52338  53.2177  56.1166 0002721  32.0094 328.1063 15.08832495 39193,6917.903,95.438,541.651,537.886,0.0
